OBJECT_NAME,OBJECT_ID,EPOCH,MEAN_MOTION,ECCENTRICITY,INCLINATION,RA_OF_ASC_NODE,ARG_OF_PERICENTER,MEAN_ANOMALY,EPHEMERIS_TYPE,CLASSIFICATION_TYPE,NORAD_CAT_ID,ELEMENT_SET_NO,REV_AT_EPOCH,BSTAR,MEAN_MOTION_DOT,MEAN_MOTION_DDOT
BEIDOU-3S IGSO-1S (C31),2015-019A,2026-06-25T19:36:21.900096,1.00249619,.00390379,49.1775,295.3568,191.6631,171.6620,0,U,40549,999,4116,0,-.174E-5,0
GPS BIIF-10 (PRN 08),2015-033A,2026-06-26T04:41:55.246848,2.00555927,.01151546,53.9753,266.7149,30.2445,330.4598,0,U,40730,999,8017,0,-.36E-6,0
BEIDOU-3S M2S (C58),2015-037A,2026-06-23T05:30:54.874656,1.86231957,.00085699,54.8652,301.8377,258.4474,101.4494,0,U,40748,999,7423,0,-.108E-5,0
BEIDOU-3S M1S (C57),2015-037B,2026-06-24T12:14:42.859392,1.86254971,.00032834,54.8605,301.7817,62.2648,297.7606,0,U,40749,999,7426,0,-.109E-5,0
GSAT0206 (GALILEO 10),2015-045B,2026-06-24T11:54:39.024000,1.70473861,.00016854,54.9433,221.4024,336.0482,24.0274,0,U,40890,999,6716,0,.51E-6,0
BEIDOU-3S IGSO-2S (C56),2015-053A,2026-06-26T16:25:46.581888,1.00257789,.0065523,49.2053,258.6677,192.9538,164.2588,0,U,40938,999,3944,0,-.116E-5,0
GPS BIIF-11 (PRN 10),2015-062A,2026-06-26T06:02:09.834144,2.00567152,.01121698,56.9655,30.4619,231.0060,128.0428,0,U,41019,999,7801,0,-.83E-6,0
GSAT-15 (GAGAN/PRN 139),2015-065A,2026-06-26T14:42:36.136800,1.00271167,.00046054,0.0494,263.8494,172.6106,152.4465,0,U,41028,999,3889,0,-.246E-5,0
GSAT0209 (GALILEO 12),2015-079A,2026-06-25T06:01:25.527360,1.70473764,.00050472,55.8320,101.0407,349.0522,10.9102,0,U,41174,999,6491,0,-.38E-6,0
GSAT0208 (GALILEO 11),2015-079B,2026-06-22T12:55:14.356704,1.70473694,.00048395,55.8290,101.1119,343.6998,16.2634,0,U,41175,999,6528,0,-.27E-6,0
IRNSS-1E,2016-003A,2026-06-25T14:21:38.812032,1.00274592,.00190622,33.2517,59.6282,179.1130,2.2203,0,U,41241,999,3816,0,-.319E-5,0
GPS BIIF-12 (PRN 32),2016-007A,2026-06-26T08:14:02.456736,2.00551441,.0095637,55.5293,89.0967,247.1706,111.8201,0,U,41328,999,7602,0,-.66E-6,0
COSMOS 2514 (751),2016-008A,2026-06-26T16:05:19.123008,2.13102793,.0011642,65.0155,312.6811,199.0102,160.9356,0,U,41330,999,8082,0,-.84E-6,0
BEIDOU-2 IGSO-6 (C13),2016-021A,2026-06-26T02:38:38.671584,1.00258926,.0057558,60.2385,37.9495,231.0163,137.2672,0,U,41434,999,3757,0,-.145E-5,0
IRNSS-1G,2016-027A,2026-06-25T08:32:51.614016,1.00276580,.0006269,5.2158,97.2878,2.9813,70.7125,0,U,41469,999,3726,0,-.329E-5,0
GSAT0211 (GALILEO 14),2016-030A,2026-06-23T20:02:59.831808,1.70474023,.00030565,55.0937,221.5119,321.3377,38.7209,0,U,41549,999,6278,0,.46E-6,0
GSAT0210 (GALILEO 13),2016-030B,2026-06-25T06:22:49.933344,1.70473937,.0008659,55.0912,221.4705,257.5264,102.4641,0,U,41550,999,6280,0,.56E-6,0
BEIDOU-2 G7 (C03),2016-037A,2026-06-26T18:12:44.409312,1.00272479,.0006836,1.7440,69.4136,1.2173,227.9870,0,U,41586,999,698,0,-.343E-5,0
EUTELSAT 117 WEST B (WAAS/PRN 131),2016-038B,2026-06-26T15:25:08.061888,1.00269678,.0000281,0.0052,198.0230,90.3505,100.6951,0,U,41589,999,3675,0,0,0
GSAT0207 (GALILEO 15),2016-069A,2026-06-26T03:08:19.832640,1.70473777,.00052663,55.5038,100.8388,330.1122,29.8311,0,U,41859,999,5955,0,-.39E-6,0
GSAT0212 (GALILEO 16),2016-069B,2026-06-25T23:37:18.081984,1.70473828,.00044037,55.5014,100.8378,10.9452,349.0377,0,U,41860,999,5980,0,-.39E-6,0
GSAT0213 (GALILEO 17),2016-069C,2026-06-25T04:16:41.547360,1.70474298,.00046296,55.5032,100.8681,315.3374,44.5989,0,U,41861,999,5965,0,-.39E-6,0
GSAT0214 (GALILEO 18),2016-069D,2026-06-21T19:19:10.755840,1.70473560,.00038497,55.5000,100.9540,321.2487,38.7039,0,U,41862,999,5972,0,-.23E-6,0
SES-15 (WAAS/PRN 133),2017-026A,2026-06-26T17:17:04.321824,1.00267078,.000073,0.0197,336.5647,101.7226,326.6485,0,U,42709,999,752,0,.72E-6,0
QZS-2 (QZSS/PRN 194),2017-028A,2026-06-26T11:46:38.651232,1.00281441,.0759188,39.4133,243.0175,269.3662,80.9134,0,U,42738,999,771,0,-.138E-5,0
QZS-3 (QZSS/PRN 199),2017-048A,2026-06-26T13:09:22.995648,1.00272200,.00022808,0.0673,148.6704,302.7459,147.6476,0,U,42917,999,3235,0,-.336E-5,0
COSMOS 2522 (752),2017-055A,2026-06-24T03:53:00.968064,2.13101107,.00084097,64.0776,191.6387,235.5259,124.4452,0,U,42939,999,6812,0,.104E-5,0
QZS-4 (QZSS/PRN 195),2017-062A,2026-06-26T08:02:03.810048,1.00296962,.0746721,40.1041,343.3683,268.2556,281.2054,0,U,42965,999,3189,0,-.355E-5,0
BEIDOU-3 M1 (C19),2017-069A,2026-06-26T06:16:16.120416,1.86231392,.0009948,56.7000,62.7851,326.4668,33.5129,0,U,43001,999,5877,0,-.86E-6,0
BEIDOU-3 M2 (C20),2017-069B,2026-06-26T04:48:06.055776,1.86230727,.0008922,56.6993,62.8231,352.8542,7.1754,0,U,43002,999,5876,0,-.86E-6,0
GSAT0215 (GALILEO 19),2017-079A,2026-06-25T05:27:54.358272,1.70474697,.00033807,55.0718,221.2853,264.8914,95.1572,0,U,43055,999,5312,0,.57E-6,0
